ISS OBJECT XY           
1 66912U 98067XY  26070.69034241  .00103877  00000+0  10662-2 0  9990
2 66912  51.6275  57.0144 0003318 100.2978 259.8391 15.64103776 15468
KNACKSAT-2              
1 67683U 98067XZ  26070.40187308  .00043646  00000+0  71521-3 0  9997
2 67683  51.6310  63.3406 0009486 191.9078 168.1689 15.51979523  5058
GXIBA-1                 
1 67684U 98067YA  26070.37179026  .00087117  00000+0  12821-2 0  9990
2 67684  51.6307  63.1407 0011196 181.3427 178.7536 15.54628792  5056
CORAL                   
1 67685U 98067YB  26070.20390376  .00050529  00000+0  81465-3 0  9994
2 67685  51.6308  64.2697 0011507 187.7901 172.2911 15.52344008  5020
ISS OBJECT YC           
1 67686U 98067YC  26070.39090049  .00061493  00000+0  96875-3 0  9992
2 67686  51.6314  63.2696 0008101 156.7781 203.3577 15.52939033  5059
LEOPARD                 
1 67687U 98067YD  26070.59248516  .00046853  00000+0  76168-3 0  9995
2 67687  51.6321  62.3663 0008002 160.9346 199.1945 15.52183951  5002
ISS OBJECT YE           
1 67688U 98067YE  26070.84421021  .00047880  00000+0  76340-3 0  9991
2 67688  51.6314  61.0480 0007947 158.7007 201.4315 15.52715373  5045
CREW DRAGON 12          
1 67796U 26031A   26070.83651153  .00008338  00000+0  16153-3 0  9994
2 67796  51.6324  61.7417 0007973 182.2925 177.8028 15.48586968556569
